{
    "links": {
        "self": "http://www.neowsapp.com/rest/v1/neo/3735609?api_key=iIulBulltgU6a56xZRHN4H3l9WmuAYTsLGpBGhQ2"
    },
    "id": "3735609",
    "neo_reference_id": "3735609",
    "name": "(2015 WE13)",
    "designation": "2015 WE13",
    "nasa_jpl_url": "http://ssd.jpl.nasa.gov/sbdb.cgi?sstr=3735609",
    "absolute_magnitude_h": 24.8,
    "estimated_diameter": {
        "kilometers": {
            "estimated_diameter_min": 0.0291443905,
            "estimated_diameter_max": 0.0651688382
        },
        "meters": {
            "estimated_diameter_min": 29.1443904535,
            "estimated_diameter_max": 65.1688382168
        },
        "miles": {
            "estimated_diameter_min": 0.018109479,
            "estimated_diameter_max": 0.0404940262
        },
        "feet": {
            "estimated_diameter_min": 95.6180819754,
            "estimated_diameter_max": 213.8085311752
        }
    },
    "is_potentially_hazardous_asteroid": false,
    "close_approach_data": [
        {
            "close_approach_date": "2015-11-19",
            "close_approach_date_full": "2015-Nov-19 16:10",
            "epoch_date_close_approach": 1447949400000,
            "relative_velocity": {
                "kilometers_per_second": "14.0933833545",
                "kilometers_per_hour": "50736.1800761255",
                "miles_per_hour": "31525.4892256347"
            },
            "miss_distance": {
                "astronomical": "0.0752163512",
                "lunar": "29.2591606168",
                "kilometers": "11252205.928691944",
                "miles": "6991796.5501750672"
            },
            "orbiting_body": "Earth"
        }
    ],
    "orbital_data": {
        "orbit_id": "3",
        "orbit_determination_date": "2017-04-06 08:30:23",
        "first_observation_date": "2015-11-23",
        "last_observation_date": "2015-12-02",
        "data_arc_in_days": 9,
        "observations_used": 40,
        "orbit_uncertainty": "8",
        "minimum_orbit_intersection": ".0750638",
        "jupiter_tisserand_invariant": "3.820",
        "epoch_osculation": "2457353.5",
        "eccentricity": ".421157980752024",
        "semi_major_axis": "1.83482873289529",
        "inclination": "23.99476164031901",
        "ascending_node_longitude": "57.89222518626786",
        "orbital_period": "907.8032339399666",
        "perihelion_distance": "1.062075968723315",
        "perihelion_argument": "354.7750842149056",
        "aphelion_distance": "2.607581497067266",
        "perihelion_time": "2457342.071958985101",
        "mean_anomaly": "4.531923451636114",
        "mean_motion": ".3965617069213998",
        "equinox": "J2000",
        "orbit_class": {
            "orbit_class_type": "AMO",
            "orbit_class_description": "Near-Earth asteroid orbits similar to that of 1221 Amor",
            "orbit_class_range": "1.017 AU < q (perihelion) < 1.3 AU"
        }
    },
    "is_sentry_object": false
}